[
    {
        "Altitude(m)": 622205.9029122745,
        "Argument of Periapsis(deg)": 0.0,
        "Eccentricity": 0.0,
        "Inclination(deg)": 60.0,
        "Latitude(deg)": -52.16253317836409,
        "Longitude(deg)": -102.29963294872789,
        "Mean Anomaly(deg)": -114.5455,
        "RAAN(deg)": 130.0,
        "Satellite Name": "Test1 587",
        "Satellite Number": 587,
        "Semi-Major Axis(m)": 6980739.136638005,
        "Time(s)": 0
    },
    {
        "Altitude(m)": 622344.8094406698,
        "Argument of Periapsis(deg)": 0.00010418945913296404,
        "Eccentricity": 0.0,
        "Inclination(deg)": 60.0,
        "Latitude(deg)": -52.52011304797972,
        "Longitude(deg)": -101.51841920609604,
        "Mean Anomaly(deg)": -113.92539385453817,
        "RAAN(deg)": 129.99957995086024,
        "Satellite Name": "Test1 587",
        "Satellite Number": 587,
        "Semi-Major Axis(m)": 6980739.136638005,
        "Time(s)": 10
    }
]